{
    "links": {
        "self": "http://www.neowsapp.com/rest/v1/neo/3799753?api_key=iIulBulltgU6a56xZRHN4H3l9WmuAYTsLGpBGhQ2"
    },
    "id": "3799753",
    "neo_reference_id": "3799753",
    "name": "(2018 DD2)",
    "designation": "2018 DD2",
    "nasa_jpl_url": "http://ssd.jpl.nasa.gov/sbdb.cgi?sstr=3799753",
    "absolute_magnitude_h": 27.4,
    "estimated_diameter": {
        "kilometers": {
            "estimated_diameter_min": 0.0088014652,
            "estimated_diameter_max": 0.0196806745
        },
        "meters": {
            "estimated_diameter_min": 8.801465209,
            "estimated_diameter_max": 19.6806745089
        },
        "miles": {
            "estimated_diameter_min": 0.0054689752,
            "estimated_diameter_max": 0.0122290004
        },
        "feet": {
            "estimated_diameter_min": 28.8761991163,
            "estimated_diameter_max": 64.5691441559
        }
    },
    "is_potentially_hazardous_asteroid": false,
    "close_approach_data": [
        {
            "close_approach_date": "2013-02-12",
            "close_approach_date_full": "2013-Feb-12 14:37",
            "epoch_date_close_approach": 1360679820000,
            "relative_velocity": {
                "kilometers_per_second": "8.239908012",
                "kilometers_per_hour": "29663.6688431001",
                "miles_per_hour": "18431.8502319807"
            },
            "miss_distance": {
                "astronomical": "0.0432735973",
                "lunar": "16.8334293497",
                "kilometers": "6473637.983317751",
                "miles": "4022532.1155409238"
            },
            "orbiting_body": "Mars"
        },
        {
            "close_approach_date": "2017-10-23",
            "close_approach_date_full": "2017-Oct-23 03:57",
            "epoch_date_close_approach": 1508731020000,
            "relative_velocity": {
                "kilometers_per_second": "3.4868124948",
                "kilometers_per_hour": "12552.52498128",
                "miles_per_hour": "7799.6508696181"
            },
            "miss_distance": {
                "astronomical": "0.2789483152",
                "lunar": "108.5108946128",
                "kilometers": "41730073.794008624",
                "miles": "25929865.4717580512"
            },
            "orbiting_body": "Earth"
        },
        {
            "close_approach_date": "2018-02-17",
            "close_approach_date_full": "2018-Feb-17 20:48",
            "epoch_date_close_approach": 1518900480000,
            "relative_velocity": {
                "kilometers_per_second": "7.0222063346",
                "kilometers_per_hour": "25279.9428046932",
                "miles_per_hour": "15707.9733499495"
            },
            "miss_distance": {
                "astronomical": "0.0134347883",
                "lunar": "5.2261326487",
                "kilometers": "2009815.713580921",
                "miles": "1248841.5748658698"
            },
            "orbiting_body": "Earth"
        },
        {
            "close_approach_date": "2020-09-26",
            "close_approach_date_full": "2020-Sep-26 04:29",
            "epoch_date_close_approach": 1601094540000,
            "relative_velocity": {
                "kilometers_per_second": "6.2934085601",
                "kilometers_per_hour": "22656.2708164296",
                "miles_per_hour": "14077.725608131"
            },
            "miss_distance": {
                "astronomical": "0.3846347717",
                "lunar": "149.6229261913",
                "kilometers": "57540542.574256279",
                "miles": "35754035.2189994902"
            },
            "orbiting_body": "Earth"
        },
        {
            "close_approach_date": "2021-03-05",
            "close_approach_date_full": "2021-Mar-05 04:25",
            "epoch_date_close_approach": 1614918300000,
            "relative_velocity": {
                "kilometers_per_second": "11.5626879765",
                "kilometers_per_hour": "41625.676715377",
                "miles_per_hour": "25864.5767346185"
            },
            "miss_distance": {
                "astronomical": "0.1640031899",
                "lunar": "63.7972408711",
                "kilometers": "24534527.882245513",
                "miles": "15245048.7037255594"
            },
            "orbiting_body": "Earth"
        }
    ],
    "orbital_data": {
        "orbit_id": "2",
        "orbit_determination_date": "2018-02-28 06:22:28",
        "first_observation_date": "2018-02-25",
        "last_observation_date": "2018-02-27",
        "data_arc_in_days": 2,
        "observations_used": 18,
        "orbit_uncertainty": "8",
        "minimum_orbit_intersection": ".0117695",
        "jupiter_tisserand_invariant": "4.900",
        "epoch_osculation": "2458175.5",
        "eccentricity": ".2948340522866736",
        "semi_major_axis": "1.318698200020426",
        "inclination": "7.359887831680108",
        "ascending_node_longitude": "153.9900245704968",
        "orbital_period": "553.1164145027238",
        "perihelion_distance": ".9299010659652617",
        "perihelion_argument": "311.0203496381449",
        "aphelion_distance": "1.707495334075591",
        "perihelion_time": "2458130.383168473767",
        "mean_anomaly": "29.36463088705514",
        "mean_motion": ".650857560109938",
        "equinox": "J2000",
        "orbit_class": {
            "orbit_class_type": "APO",
            "orbit_class_description": "Near-Earth asteroid orbits which cross the Earth’s orbit similar to that of 1862 Apollo",
            "orbit_class_range": "a (semi-major axis) > 1.0 AU; q (perihelion) < 1.017 AU"
        }
    },
    "is_sentry_object": false
}